<?xml version="1.0" encoding="UTF-8"?>
<ndm xmlns:xsi="http://www.w3.org/2001/XMLSchema-instance" xsi:noNamespaceSchemaLocation="https://sanaregistry.org/r/ndmxml_unqualified/ndmxml-2.0.0-master-2.0.xsd">
<omm id="CCSDS_OMM_VERS" version="2.0">
<header><CREATION_DATE/><ORIGINATOR/></header><body><segment><metadata><OBJECT_NAME>ONEWEB-0130</OBJECT_NAME><OBJECT_ID>2020-100U</OBJECT_ID><CENTER_NAME>EARTH</CENTER_NAME><REF_FRAME>TEME</REF_FRAME><TIME_SYSTEM>UTC</TIME_SYSTEM><MEAN_ELEMENT_THEORY>SGP4</MEAN_ELEMENT_THEORY></metadata><data><meanElements><EPOCH>2024-04-28T14:09:41.964192</EPOCH><MEAN_MOTION>13.12442429</MEAN_MOTION><ECCENTRICITY>.0002161</ECCENTRICITY><INCLINATION>87.8944</INCLINATION><RA_OF_ASC_NODE>145.8561</RA_OF_ASC_NODE><ARG_OF_PERICENTER>97.6792</ARG_OF_PERICENTER><MEAN_ANOMALY>262.4582</MEAN_ANOMALY></meanElements><tleParameters><EPHEMERIS_TYPE>0</EPHEMERIS_TYPE><CLASSIFICATION_TYPE>U</CLASSIFICATION_TYPE><NORAD_CAT_ID>47276</NORAD_CAT_ID><ELEMENT_SET_NO>999</ELEMENT_SET_NO><REV_AT_EPOCH>16238</REV_AT_EPOCH><BSTAR>.71545E-3</BSTAR><MEAN_MOTION_DOT>.27E-5</MEAN_MOTION_DOT><MEAN_MOTION_DDOT>0</MEAN_MOTION_DDOT></tleParameters></data></segment></body></omm>
<omm id="CCSDS_OMM_VERS" version="2.0">
<header><CREATION_DATE/><ORIGINATOR/></header><body><segment><metadata><OBJECT_NAME>ONEWEB-0131</OBJECT_NAME><OBJECT_ID>2020-100V</OBJECT_ID><CENTER_NAME>EARTH</CENTER_NAME><REF_FRAME>TEME</REF_FRAME><TIME_SYSTEM>UTC</TIME_SYSTEM><MEAN_ELEMENT_THEORY>SGP4</MEAN_ELEMENT_THEORY></metadata><data><meanElements><EPOCH>2024-04-28T14:05:08.043360</EPOCH><MEAN_MOTION>13.12443774</MEAN_MOTION><ECCENTRICITY>.0002006</ECCENTRICITY><INCLINATION>87.8948</INCLINATION><RA_OF_ASC_NODE>145.8700</RA_OF_ASC_NODE><ARG_OF_PERICENTER>97.7413</ARG_OF_PERICENTER><MEAN_ANOMALY>262.3944</MEAN_ANOMALY></meanElements><tleParameters><EPHEMERIS_TYPE>0</EPHEMERIS_TYPE><CLASSIFICATION_TYPE>U</CLASSIFICATION_TYPE><NORAD_CAT_ID>47277</NORAD_CAT_ID><ELEMENT_SET_NO>999</ELEMENT_SET_NO><REV_AT_EPOCH>16242</REV_AT_EPOCH><BSTAR>.40309E-3</BSTAR><MEAN_MOTION_DOT>.158E-5</MEAN_MOTION_DOT><MEAN_MOTION_DDOT>0</MEAN_MOTION_DDOT></tleParameters></data></segment></body></omm>
<omm id="CCSDS_OMM_VERS" version="2.0">
<header><CREATION_DATE/><ORIGINATOR/></header><body><segment><metadata><OBJECT_NAME>ONEWEB-0132</OBJECT_NAME><OBJECT_ID>2020-100W</OBJECT_ID><CENTER_NAME>EARTH</CENTER_NAME><REF_FRAME>TEME</REF_FRAME><TIME_SYSTEM>UTC</TIME_SYSTEM><MEAN_ELEMENT_THEORY>SGP4</MEAN_ELEMENT_THEORY></metadata><data><meanElements><EPOCH>2024-04-28T18:25:51.913344</EPOCH><MEAN_MOTION>13.12442626</MEAN_MOTION><ECCENTRICITY>.0001819</ECCENTRICITY><INCLINATION>87.8947</INCLINATION><RA_OF_ASC_NODE>145.8362</RA_OF_ASC_NODE><ARG_OF_PERICENTER>94.6438</ARG_OF_PERICENTER><MEAN_ANOMALY>265.4898</MEAN_ANOMALY></meanElements><tleParameters><EPHEMERIS_TYPE>0</EPHEMERIS_TYPE><CLASSIFICATION_TYPE>U</CLASSIFICATION_TYPE><NORAD_CAT_ID>47278</NORAD_CAT_ID><ELEMENT_SET_NO>999</ELEMENT_SET_NO><REV_AT_EPOCH>16234</REV_AT_EPOCH><BSTAR>.36676E-3</BSTAR><MEAN_MOTION_DOT>.145E-5</MEAN_MOTION_DOT><MEAN_MOTION_DDOT>0</MEAN_MOTION_DDOT></tleParameters></data></segment></body></omm>
<omm id="CCSDS_OMM_VERS" version="2.0">
<header><CREATION_DATE/><ORIGINATOR/></header><body><segment><metadata><OBJECT_NAME>ONEWEB-0133</OBJECT_NAME><OBJECT_ID>2020-100X</OBJECT_ID><CENTER_NAME>EARTH</CENTER_NAME><REF_FRAME>TEME</REF_FRAME><TIME_SYSTEM>UTC</TIME_SYSTEM><MEAN_ELEMENT_THEORY>SGP4</MEAN_ELEMENT_THEORY></metadata><data><meanElements><EPOCH>2024-04-28T18:48:43.352640</EPOCH><MEAN_MOTION>13.12442911</MEAN_MOTION><ECCENTRICITY>.0001979</ECCENTRICITY><INCLINATION>87.8941</INCLINATION><RA_OF_ASC_NODE>145.8342</RA_OF_ASC_NODE><ARG_OF_PERICENTER>97.4494</ARG_OF_PERICENTER><MEAN_ANOMALY>262.6860</MEAN_ANOMALY></meanElements><tleParameters><EPHEMERIS_TYPE>0</EPHEMERIS_TYPE><CLASSIFICATION_TYPE>U</CLASSIFICATION_TYPE><NORAD_CAT_ID>47279</NORAD_CAT_ID><ELEMENT_SET_NO>999</ELEMENT_SET_NO><REV_AT_EPOCH>16250</REV_AT_EPOCH><BSTAR>-.95336E-3</BSTAR><MEAN_MOTION_DOT>-.33E-5</MEAN_MOTION_DOT><MEAN_MOTION_DDOT>0</MEAN_MOTION_DDOT></tleParameters></data></segment></body></omm>
<omm id="CCSDS_OMM_VERS" version="2.0">
<header><CREATION_DATE/><ORIGINATOR/></header><body><segment><metadata><OBJECT_NAME>ONEWEB-0134</OBJECT_NAME><OBJECT_ID>2020-100Y</OBJECT_ID><CENTER_NAME>EARTH</CENTER_NAME><REF_FRAME>TEME</REF_FRAME><TIME_SYSTEM>UTC</TIME_SYSTEM><MEAN_ELEMENT_THEORY>SGP4</MEAN_ELEMENT_THEORY></metadata><data><meanElements><EPOCH>2024-04-28T14:25:42.751200</EPOCH><MEAN_MOTION>13.12441438</MEAN_MOTION><ECCENTRICITY>.0002189</ECCENTRICITY><INCLINATION>87.8940</INCLINATION><RA_OF_ASC_NODE>145.8590</RA_OF_ASC_NODE><ARG_OF_PERICENTER>100.9718</ARG_OF_PERICENTER><MEAN_ANOMALY>259.1657</MEAN_ANOMALY></meanElements><tleParameters><EPHEMERIS_TYPE>0</EPHEMERIS_TYPE><CLASSIFICATION_TYPE>U</CLASSIFICATION_TYPE><NORAD_CAT_ID>47280</NORAD_CAT_ID><ELEMENT_SET_NO>999</ELEMENT_SET_NO><REV_AT_EPOCH>16245</REV_AT_EPOCH><BSTAR>.11093E-2</BSTAR><MEAN_MOTION_DOT>.412E-5</MEAN_MOTION_DOT><MEAN_MOTION_DDOT>0</MEAN_MOTION_DDOT></tleParameters></data></segment></body></omm>
<omm id="CCSDS_OMM_VERS" version="2.0">
<header><CREATION_DATE/><ORIGINATOR/></header><body><segment><metadata><OBJECT_NAME>ONEWEB-0135</OBJECT_NAME><OBJECT_ID>2020-100Z</OBJECT_ID><CENTER_NAME>EARTH</CENTER_NAME><REF_FRAME>TEME</REF_FRAME><TIME_SYSTEM>UTC</TIME_SYSTEM><MEAN_ELEMENT_THEORY>SGP4</MEAN_ELEMENT_THEORY></metadata><data><meanElements><EPOCH>2024-04-28T13:39:57.632256</EPOCH><MEAN_MOTION>13.12445202</MEAN_MOTION><ECCENTRICITY>.0002085</ECCENTRICITY><INCLINATION>87.8946</INCLINATION><RA_OF_ASC_NODE>145.8778</RA_OF_ASC_NODE><ARG_OF_PERICENTER>96.3577</ARG_OF_PERICENTER><MEAN_ANOMALY>263.7789</MEAN_ANOMALY></meanElements><tleParameters><EPHEMERIS_TYPE>0</EPHEMERIS_TYPE><CLASSIFICATION_TYPE>U</CLASSIFICATION_TYPE><NORAD_CAT_ID>47281</NORAD_CAT_ID><ELEMENT_SET_NO>999</ELEMENT_SET_NO><REV_AT_EPOCH>16247</REV_AT_EPOCH><BSTAR>-.89329E-3</BSTAR><MEAN_MOTION_DOT>-.309E-5</MEAN_MOTION_DOT><MEAN_MOTION_DDOT>0</MEAN_MOTION_DDOT></tleParameters></data></segment></body></omm>
<omm id="CCSDS_OMM_VERS" version="2.0">
<header><CREATION_DATE/><ORIGINATOR/></header><body><segment><metadata><OBJECT_NAME>ONEWEB-0136</OBJECT_NAME><OBJECT_ID>2020-100AA</OBJECT_ID><CENTER_NAME>EARTH</CENTER_NAME><REF_FRAME>TEME</REF_FRAME><TIME_SYSTEM>UTC</TIME_SYSTEM><MEAN_ELEMENT_THEORY>SGP4</MEAN_ELEMENT_THEORY></metadata><data><meanElements><EPOCH>2024-04-28T14:11:58.922880</EPOCH><MEAN_MOTION>13.12442234</MEAN_MOTION><ECCENTRICITY>.0002426</ECCENTRICITY><INCLINATION>87.8947</INCLINATION><RA_OF_ASC_NODE>145.8421</RA_OF_ASC_NODE><ARG_OF_PERICENTER>104.5072</ARG_OF_PERICENTER><MEAN_ANOMALY>255.6325</MEAN_ANOMALY></meanElements><tleParameters><EPHEMERIS_TYPE>0</EPHEMERIS_TYPE><CLASSIFICATION_TYPE>U</CLASSIFICATION_TYPE><NORAD_CAT_ID>47282</NORAD_CAT_ID><ELEMENT_SET_NO>999</ELEMENT_SET_NO><REV_AT_EPOCH>16240</REV_AT_EPOCH><BSTAR>.94021E-3</BSTAR><MEAN_MOTION_DOT>.351E-5</MEAN_MOTION_DOT><MEAN_MOTION_DDOT>0</MEAN_MOTION_DDOT></tleParameters></data></segment></body></omm>
<omm id="CCSDS_OMM_VERS" version="2.0">
<header><CREATION_DATE/><ORIGINATOR/></header><body><segment><metadata><OBJECT_NAME>ONEWEB-0137</OBJECT_NAME><OBJECT_ID>2020-100AB</OBJECT_ID><CENTER_NAME>EARTH</CENTER_NAME><REF_FRAME>TEME</REF_FRAME><TIME_SYSTEM>UTC</TIME_SYSTEM><MEAN_ELEMENT_THEORY>SGP4</MEAN_ELEMENT_THEORY></metadata><data><meanElements><EPOCH>2024-04-28T13:10:14.042496</EPOCH><MEAN_MOTION>13.12441031</MEAN_MOTION><ECCENTRICITY>.0002215</ECCENTRICITY><INCLINATION>87.8942</INCLINATION><RA_OF_ASC_NODE>145.8774</RA_OF_ASC_NODE><ARG_OF_PERICENTER>92.0118</ARG_OF_PERICENTER><MEAN_ANOMALY>268.1264</MEAN_ANOMALY></meanElements><tleParameters><EPHEMERIS_TYPE>0</EPHEMERIS_TYPE><CLASSIFICATION_TYPE>U</CLASSIFICATION_TYPE><NORAD_CAT_ID>47283</NORAD_CAT_ID><ELEMENT_SET_NO>999</ELEMENT_SET_NO><REV_AT_EPOCH>16230</REV_AT_EPOCH><BSTAR>-.59933E-3</BSTAR><MEAN_MOTION_DOT>-.203E-5</MEAN_MOTION_DOT><MEAN_MOTION_DDOT>0</MEAN_MOTION_DDOT></tleParameters></data></segment></body></omm>
<omm id="CCSDS_OMM_VERS" version="2.0">
<header><CREATION_DATE/><ORIGINATOR/></header><body><segment><metadata><OBJECT_NAME>ONEWEB-0138</OBJECT_NAME><OBJECT_ID>2020-100AC</OBJECT_ID><CENTER_NAME>EARTH</CENTER_NAME><REF_FRAME>TEME</REF_FRAME><TIME_SYSTEM>UTC</TIME_SYSTEM><MEAN_ELEMENT_THEORY>SGP4</MEAN_ELEMENT_THEORY></metadata><data><meanElements><EPOCH>2024-04-28T14:30:16.384320</EPOCH><MEAN_MOTION>13.12439415</MEAN_MOTION><ECCENTRICITY>.0002258</ECCENTRICITY><INCLINATION>87.8940</INCLINATION><RA_OF_ASC_NODE>145.8788</RA_OF_ASC_NODE><ARG_OF_PERICENTER>95.6917</ARG_OF_PERICENTER><MEAN_ANOMALY>264.4469</MEAN_ANOMALY></meanElements><tleParameters><EPHEMERIS_TYPE>0</EPHEMERIS_TYPE><CLASSIFICATION_TYPE>U</CLASSIFICATION_TYPE><NORAD_CAT_ID>47284</NORAD_CAT_ID><ELEMENT_SET_NO>999</ELEMENT_SET_NO><REV_AT_EPOCH>16239</REV_AT_EPOCH><BSTAR>.33529E-2</BSTAR><MEAN_MOTION_DOT>.1219E-4</MEAN_MOTION_DOT><MEAN_MOTION_DDOT>0</MEAN_MOTION_DDOT></tleParameters></data></segment></body></omm>

</ndm>
